start=new Date('2021-12-09T00:00:00.000Z').valueOf();
sats=[{"MEAN_MOTION_DDOT":"0.0000000000000","BSTAR":"0.00009679800000","COUNTRY_CODE":"US","RA_OF_ASC_NODE":"284.4519","TLE_LINE2":"2 46569  53.0538 284.4519 0001957  62.6252 297.4936 15.06403634 65849","PERIAPSIS":"545.847","EPOCH":"2021-12-08T13:08:34.204704","CENTER_NAME":"EARTH","SITE":"AFETR","REV_AT_EPOCH":"6584","RCS_SIZE":"LARGE","NORAD_CAT_ID":"46569","TIME_SYSTEM":"UTC","OBJECT_TYPE":"PAYLOAD","MEAN_MOTION_DOT":"0.00001161","SEMIMAJOR_AXIS":"6925.337","OBJECT_ID":"2020-070AP","MEAN_ELEMENT_THEORY":"SGP4","TLE_LINE1":"1 46569U 20070AP  21342.54761811  .00001161  00000-0  96798-4 0  9996","EPHEMERIS_TYPE":"0","DECAY_DATE":null,"PERIOD":"95.592","CLASSIFICATION_TYPE":"U","ECCENTRICITY":"0.00019570","REF_FRAME":"TEME","FILE":"3235746","INCLINATION":"53.0538","LAUNCH_DATE":"2020-10-06","ELEMENT_SET_NO":"999","MEAN_ANOMALY":"297.4936","ARG_OF_PERICENTER":"62.6252","MEAN_MOTION":"15.06403634","APOAPSIS":"548.558","OBJECT_NAME":"STARLINK-1747","GP_ID":"191336213"},{"SITE":"AFETR","REV_AT_EPOCH":"6588","RCS_SIZE":"LARGE","NORAD_CAT_ID":"46570","TIME_SYSTEM":"UTC","OBJECT_TYPE":"PAYLOAD","MEAN_MOTION_DOT":"0.00000004","SEMIMAJOR_AXIS":"6925.334","OBJECT_ID":"2020-070AQ","BSTAR":"0.00001916200000","MEAN_MOTION_DDOT":"0.0000000000000","RA_OF_ASC_NODE":"283.0684","COUNTRY_CODE":"US","TLE_LINE2":"2 46570  53.0549 283.0684 0002069  57.2239 302.8949 15.06404716 65882","EPOCH":"2021-12-08T20:29:06.548064","PERIAPSIS":"545.766","CENTER_NAME":"EARTH","REF_FRAME":"TEME","FILE":"3235972","INCLINATION":"53.0549","ELEMENT_SET_NO":"999","LAUNCH_DATE":"2020-10-06","MEAN_ANOMALY":"302.8949","ARG_OF_PERICENTER":"57.2239","MEAN_MOTION":"15.06404716","APOAPSIS":"548.632","OBJECT_NAME":"STARLINK-1748","GP_ID":"191365202","MEAN_ELEMENT_THEORY":"SGP4","EPHEMERIS_TYPE":"0","TLE_LINE1":"1 46570U 20070AQ  21342.85354801  .00000004  00000-0  19162-4 0  9994","PERIOD":"95.592","DECAY_DATE":null,"CLASSIFICATION_TYPE":"U","ECCENTRICITY":"0.00020690"},{"APOAPSIS":"431.777","OBJECT_NAME":"STARLINK-1753","GP_ID":"191363950","INCLINATION":"53.0561","FILE":"3235972","REF_FRAME":"TEME","LAUNCH_DATE":"2020-10-06","ELEMENT_SET_NO":"999","MEAN_ANOMALY":"179.1310","ARG_OF_PERICENTER":"180.9693","MEAN_MOTION":"15.45222129","DECAY_DATE":null,"PERIOD":"93.190","CLASSIFICATION_TYPE":"U","ECCENTRICITY":"0.00015410","MEAN_ELEMENT_THEORY":"SGP4","TLE_LINE1":"1 46571U 20070AR  21342.94543173  .00515425  00000-0  99913-2 0  9995","EPHEMERIS_TYPE":"0","OBJECT_TYPE":"PAYLOAD","MEAN_MOTION_DOT":"0.00515425","SEMIMAJOR_AXIS":"6808.862","OBJECT_ID":"2020-070AR","SITE":"AFETR","REV_AT_EPOCH":"6594","RCS_SIZE":"LARGE","NORAD_CAT_ID":"46571","TIME_SYSTEM":"UTC","CENTER_NAME":"EARTH","MEAN_MOTION_DDOT":"0.0000000000000","BSTAR":"0.00999130000000","COUNTRY_CODE":"US","RA_OF_ASC_NODE":"279.8203","TLE_LINE2":"2 46571  53.0561 279.8203 0001541 180.9693 179.1310 15.45222129 65942","PERIAPSIS":"429.678","EPOCH":"2021-12-08T22:41:25.301472"},{"APOAPSIS":"548.560","OBJECT_NAME":"STARLINK-1531","GP_ID":"191364200","INCLINATION":"53.0555","FILE":"3235972","REF_FRAME":"TEME","ELEMENT_SET_NO":"999","LAUNCH_DATE":"2020-10-06","MEAN_ANOMALY":"304.1661","ARG_OF_PERICENTER":"55.9512","MEAN_MOTION":"15.06398509","PERIOD":"95.592","DECAY_DATE":null,"CLASSIFICATION_TYPE":"U","ECCENTRICITY":"0.00019380","MEAN_ELEMENT_THEORY":"SGP4","TLE_LINE1":"1 46572U 20070AS  21342.91805858 -.00000427  00000-0 -97685-5 0  9994","EPHEMERIS_TYPE":"0","OBJECT_TYPE":"PAYLOAD","MEAN_MOTION_DOT":"-0.00000427","SEMIMAJOR_AXIS":"6925.353","OBJECT_ID":"2020-070AS","SITE":"AFETR","REV_AT_EPOCH":"6561","RCS_SIZE":"LARGE","NORAD_CAT_ID":"46572","TIME_SYSTEM":"UTC","CENTER_NAME":"EARTH","BSTAR":"-0.00000976850000","MEAN_MOTION_DDOT":"0.0000000000000","RA_OF_ASC_NODE":"302.8004","COUNTRY_CODE":"US","TLE_LINE2":"2 46572  53.0555 302.8004 0001938  55.9512 304.1661 15.06398509 65619","EPOCH":"2021-12-08T22:02:00.261312","PERIAPSIS":"545.876"},{"CENTER_NAME":"EARTH","MEAN_MOTION_DDOT":"0.0000000000000","BSTAR":"0.00000102850000","COUNTRY_CODE":"US","RA_OF_ASC_NODE":"287.8888","TLE_LINE2":"2 46573  53.0547 287.8888 0001997  56.4552 303.6628 15.06400044 65826","PERIAPSIS":"545.830","EPOCH":"2021-12-08T21:29:29.842656","OBJECT_TYPE":"PAYLOAD","MEAN_MOTION_DOT":"-0.00000266","SEMIMAJOR_AXIS":"6925.348","OBJECT_ID":"2020-070AT","SITE":"AFETR","REV_AT_EPOCH":"6582","RCS_SIZE":"LARGE","NORAD_CAT_ID":"46573","TIME_SYSTEM":"UTC","PERIOD":"95.592","DECAY_DATE":null,"CLASSIFICATION_TYPE":"U","ECCENTRICITY":"0.00019970","MEAN_ELEMENT_THEORY":"SGP4","TLE_LINE1":"1 46573U 20070AT  21342.89548429 -.00000266  00000-0  10285-5 0  9991","EPHEMERIS_TYPE":"0","APOAPSIS":"548.596","OBJECT_NAME":"STARLINK-1650","GP_ID":"191364952","FILE":"3235972","REF_FRAME":"TEME","INCLINATION":"53.0547","LAUNCH_DATE":"2020-10-06","ELEMENT_SET_NO":"999","ARG_OF_PERICENTER":"56.4552","MEAN_ANOMALY":"303.6628","MEAN_MOTION":"15.06400044"},{"REV_AT_EPOCH":"6582","SITE":"AFETR","NORAD_CAT_ID":"46574","TIME_SYSTEM":"UTC","RCS_SIZE":"LARGE","MEAN_MOTION_DOT":"-0.00000250","OBJECT_TYPE":"PAYLOAD","OBJECT_ID":"2020-070AU","SEMIMAJOR_AXIS":"6925.366","COUNTRY_CODE":"US","RA_OF_ASC_NODE":"287.9658","MEAN_MOTION_DDOT":"0.0000000000000","BSTAR":"0.00000209980000","PERIAPSIS":"545.943","EPOCH":"2021-12-08T21:08:15.742464","TLE_LINE2":"2 46574  53.0547 287.9658 0001860  62.0324 298.0853 15.06394352 65823","CENTER_NAME":"EARTH","LAUNCH_DATE":"2020-10-06","ELEMENT_SET_NO":"999","FILE":"3235972","INCLINATION":"53.0547","REF_FRAME":"TEME","MEAN_MOTION":"15.06394352","ARG_OF_PERICENTER":"62.0324","MEAN_ANOMALY":"298.0853","OBJECT_NAME":"STARLINK-1660","APOAPSIS":"548.519","GP_ID":"191364702","EPHEMERIS_TYPE":"0","TLE_LINE1":"1 46574U 20070AU  21342.88073776 -.00000250  00000-0  20998-5 0  9994","MEAN_ELEMENT_THEORY":"SGP4","CLASSIFICATION_TYPE":"U","PERIOD":"95.592","DECAY_DATE":null,"ECCENTRICITY":"0.00018600"},{"MEAN_ELEMENT_THEORY":"SGP4","TLE_LINE1":"1 46575U 20070AV  21342.93922515  .00001311  00000-0  10692-3 0  9991","EPHEMERIS_TYPE":"0","PERIOD":"95.592","DECAY_DATE":null,"CLASSIFICATION_TYPE":"U","ECCENTRICITY":"0.00021730","INCLINATION":"53.0541","FILE":"3235972","REF_FRAME":"TEME","ELEMENT_SET_NO":"999","LAUNCH_DATE":"2020-10-06","MEAN_ANOMALY":"303.8912","ARG_OF_PERICENTER":"56.2283","MEAN_MOTION":"15.06397378","APOAPSIS":"548.726","OBJECT_NAME":"STARLINK-1675","GP_ID":"191363450","BSTAR":"0.00010692000000","MEAN_MOTION_DDOT":"0.0000000000000","RA_OF_ASC_NODE":"262.6988","COUNTRY_CODE":"US","TLE_LINE2":"2 46575  53.0541 262.6988 0002173  56.2283 303.8912 15.06397378 66172","EPOCH":"2021-12-08T22:32:29.052960","PERIAPSIS":"545.717","CENTER_NAME":"EARTH","SITE":"AFETR","REV_AT_EPOCH":"6617","RCS_SIZE":"LARGE","TIME_SYSTEM":"UTC","NORAD_CAT_ID":"46575","MEAN_MOTION_DOT":"0.00001311","OBJECT_TYPE":"PAYLOAD","SEMIMAJOR_AXIS":"6925.357","OBJECT_ID":"2020-070AV"},{"CENTER_NAME":"EARTH","TLE_LINE2":"2 46576  53.0546 287.9898 0001921  60.2106 299.9074 15.06396409 65826","PERIAPSIS":"545.894","EPOCH":"2021-12-08T20:57:38.497536","MEAN_MOTION_DDOT":"0.0000000000000","BSTAR":"0.00006261300000","COUNTRY_CODE":"US","RA_OF_ASC_NODE":"287.9898","SEMIMAJOR_AXIS":"6925.360","OBJECT_ID":"2020-070AW","MEAN_MOTION_DOT":"0.00000651","OBJECT_TYPE":"PAYLOAD","RCS_SIZE":"LARGE","NORAD_CAT_ID":"46576","TIME_SYSTEM":"UTC","SITE":"AFETR","REV_AT_EPOCH":"6582","ECCENTRICITY":"0.00019210","PERIOD":"95.592","DECAY_DATE":null,"CLASSIFICATION_TYPE":"U","MEAN_ELEMENT_THEORY":"SGP4","TLE_LINE1":"1 46576U 20070AW  21342.87336224  .00000651  00000-0  62613-4 0  9998","EPHEMERIS_TYPE":"0","GP_ID":"191363700","APOAPSIS":"548.555","OBJECT_NAME":"STARLINK-1677","ARG_OF_PERICENTER":"60.2106","MEAN_ANOMALY":"299.9074","MEAN_MOTION":"15.06396409","REF_FRAME":"TEME","FILE":"3235972","INCLINATION":"53.0546","LAUNCH_DATE":"2020-10-06","ELEMENT_SET_NO":"999"},{"RA_OF_ASC_NODE":"288.1641","COUNTRY_CODE":"US","BSTAR":"0.00007036900000","MEAN_MOTION_DDOT":"0.0000000000000","EPOCH":"2021-12-08T20:04:33.940416","PERIAPSIS":"545.743","TLE_LINE2":"2 46577  53.0556 288.1641 0002131  67.4970 292.6245 15.06398418 65810","CENTER_NAME":"EARTH","REV_AT_EPOCH":"6581","SITE":"AFETR","NORAD_CAT_ID":"46577","TIME_SYSTEM":"UTC","RCS_SIZE":"LARGE","MEAN_MOTION_DOT":"0.00000766","OBJECT_TYPE":"PAYLOAD","OBJECT_ID":"2020-070AX","SEMIMAJOR_AXIS":"6925.353","TLE_LINE1":"1 46577U 20070AX  21342.83650394  .00000766  00000-0  70369-4 0  9996","EPHEMERIS_TYPE":"0","MEAN_ELEMENT_THEORY":"SGP4","CLASSIFICATION_TYPE":"U","PERIOD":"95.592","DECAY_DATE":null,"ECCENTRICITY":"0.00021310","ELEMENT_SET_NO":"999","LAUNCH_DATE":"2020-10-06","REF_FRAME":"TEME","FILE":"3235972","INCLINATION":"53.0556","MEAN_MOTION":"15.06398418","ARG_OF_PERICENTER":"67.4970","MEAN_ANOMALY":"292.6245","OBJECT_NAME":"STARLINK-1682","APOAPSIS":"548.694","GP_ID":"191364452"},{"GP_ID":"191365203","OBJECT_NAME":"STARLINK-1683","APOAPSIS":"548.802","MEAN_MOTION":"15.06408190","ARG_OF_PERICENTER":"53.6156","MEAN_ANOMALY":"306.5047","ELEMENT_SET_NO":"999","LAUNCH_DATE":"2020-10-06","FILE":"3235972","REF_FRAME":"TEME","INCLINATION":"53.0553","ECCENTRICITY":"0.00023300","CLASSIFICATION_TYPE":"U","DECAY_DATE":null,"PERIOD":"95.592","TLE_LINE1":"1 46578U 20070AY  21342.81299001  .00000387  00000-0  44866-4 0  9991","EPHEMERIS_TYPE":"0","MEAN_ELEMENT_THEORY":"SGP4","OBJECT_ID":"2020-070AY","SEMIMAJOR_AXIS":"6925.323","OBJECT_TYPE":"PAYLOAD","MEAN_MOTION_DOT":"0.00000387","NORAD_CAT_ID":"46578","TIME_SYSTEM":"UTC","RCS_SIZE":"LARGE","REV_AT_EPOCH":"6602","SITE":"AFETR","CENTER_NAME":"EARTH","EPOCH":"2021-12-08T19:30:42.336864","PERIAPSIS":"545.575","TLE_LINE2":"2 46578  53.0553 273.2723 0002330  53.6156 306.5047 15.06408190 66026","RA_OF_ASC_NODE":"273.2723","COUNTRY_CODE":"US","BSTAR":"0.00004486600000","MEAN_MOTION_DDOT":"0.0000000000000"}];
